ACS3                    
1 59588U 24077B   24166.76004274  .00000082  00000+0  13045-3 0  9999
2 59588  97.4060 235.5041 0021635 101.0972 259.2614 13.67685416  7070
